start=new Date('2022-07-06T00:00:00.000Z').valueOf();
sats=[{"COUNTRY_CODE":"US","SITE":"AFWTR","APOAPSIS":"391.332","OBJECT_NAME":"STARLINK-3957","LAUNCH_DATE":"2022-05-13","REF_FRAME":"TEME","ARG_OF_PERICENTER":"55.8943","MEAN_MOTION_DDOT":"0.0000000000000","CLASSIFICATION_TYPE":"U","MEAN_MOTION":"15.59053106","PERIAPSIS":"389.465","EPHEMERIS_TYPE":"0","RCS_SIZE":"LARGE","OBJECT_TYPE":"PAYLOAD","OBJECT_ID":"2022-051AF","ECCENTRICITY":"0.00013790","MEAN_ANOMALY":"194.9984","CENTER_NAME":"EARTH","RA_OF_ASC_NODE":"32.7362","MEAN_ELEMENT_THEORY":"SGP4","NORAD_CAT_ID":"52562","FILE":"3508171","MEAN_MOTION_DOT":"-0.01061317","EPOCH":"2022-07-05T14:00:01.000224","BSTAR":"-0.01468700000000","SEMIMAJOR_AXIS":"6768.533","GP_ID":"207480239","TLE_LINE1":"1 52562U 22051AF  22186.58334491 -.01061317  00000-0 -14687-1 0  9994","TIME_SYSTEM":"UTC","ELEMENT_SET_NO":"999","REV_AT_EPOCH":"130","INCLINATION":"53.2174","TLE_LINE2":"2 52562  53.2174  32.7362 0001379  55.8943 194.9984 15.59053106  1304","DECAY_DATE":null,"PERIOD":"92.364"},{"OBJECT_TYPE":"PAYLOAD","RCS_SIZE":"LARGE","MEAN_ANOMALY":"127.3085","OBJECT_ID":"2022-051AG","ECCENTRICITY":"0.00018490","EPHEMERIS_TYPE":"0","PERIAPSIS":"538.517","REF_FRAME":"TEME","ARG_OF_PERICENTER":"51.3302","MEAN_MOTION":"15.08823523","CLASSIFICATION_TYPE":"U","MEAN_MOTION_DDOT":"0.0000000000000","OBJECT_NAME":"STARLINK-3942","APOAPSIS":"541.075","SITE":"AFWTR","COUNTRY_CODE":"US","LAUNCH_DATE":"2022-05-13","INCLINATION":"53.2195","REV_AT_EPOCH":"130","ELEMENT_SET_NO":"999","PERIOD":"95.439","DECAY_DATE":null,"TLE_LINE2":"2 52563  53.2195  43.5614 0001849  51.3302 127.3085 15.08823523  1304","GP_ID":"207480043","TIME_SYSTEM":"UTC","TLE_LINE1":"1 52563U 22051AG  22186.58334491  .00029157  00000-0  18433-2 0  9992","SEMIMAJOR_AXIS":"6917.931","BSTAR":"0.00184330000000","EPOCH":"2022-07-05T14:00:01.000224","MEAN_MOTION_DOT":"0.00029157","RA_OF_ASC_NODE":"43.5614","CENTER_NAME":"EARTH","MEAN_ELEMENT_THEORY":"SGP4","FILE":"3508171","NORAD_CAT_ID":"52563"},{"GP_ID":"207479791","TLE_LINE1":"1 52564U 22051AH  22186.58334491  .00029865  00000-0  18874-2 0  9998","TIME_SYSTEM":"UTC","INCLINATION":"53.2190","REV_AT_EPOCH":"130","ELEMENT_SET_NO":"999","PERIOD":"95.439","TLE_LINE2":"2 52564  53.2190  43.5599 0001896  56.4851 162.1542 15.08824627  1300","DECAY_DATE":null,"RA_OF_ASC_NODE":"43.5599","CENTER_NAME":"EARTH","MEAN_ELEMENT_THEORY":"SGP4","FILE":"3508171","NORAD_CAT_ID":"52564","SEMIMAJOR_AXIS":"6917.927","EPOCH":"2022-07-05T14:00:01.000224","BSTAR":"0.00188740000000","MEAN_MOTION_DOT":"0.00029865","EPHEMERIS_TYPE":"0","PERIAPSIS":"538.481","OBJECT_TYPE":"PAYLOAD","RCS_SIZE":"LARGE","MEAN_ANOMALY":"162.1542","ECCENTRICITY":"0.00018960","OBJECT_ID":"2022-051AH","OBJECT_NAME":"STARLINK-3959","APOAPSIS":"541.104","SITE":"AFWTR","COUNTRY_CODE":"US","LAUNCH_DATE":"2022-05-13","ARG_OF_PERICENTER":"56.4851","REF_FRAME":"TEME","MEAN_MOTION":"15.08824627","CLASSIFICATION_TYPE":"U","MEAN_MOTION_DDOT":"0.0000000000000"},{"GP_ID":"207479943","TIME_SYSTEM":"UTC","TLE_LINE1":"1 52565U 22051AJ  22186.58334491 -.01061657  00000-0 -14695-1 0  9993","REV_AT_EPOCH":"130","ELEMENT_SET_NO":"999","INCLINATION":"53.2174","PERIOD":"92.364","TLE_LINE2":"2 52565  53.2174  32.7284 0001589  41.9302 208.2169 15.59046329  1301","DECAY_DATE":null,"RA_OF_ASC_NODE":"32.7284","CENTER_NAME":"EARTH","MEAN_ELEMENT_THEORY":"SGP4","NORAD_CAT_ID":"52565","FILE":"3508171","EPOCH":"2022-07-05T14:00:01.000224","BSTAR":"-0.01469500000000","MEAN_MOTION_DOT":"-0.01061657","SEMIMAJOR_AXIS":"6768.553","EPHEMERIS_TYPE":"0","PERIAPSIS":"389.342","RCS_SIZE":"LARGE","OBJECT_TYPE":"PAYLOAD","OBJECT_ID":"2022-051AJ","ECCENTRICITY":"0.00015890","MEAN_ANOMALY":"208.2169","COUNTRY_CODE":"US","APOAPSIS":"391.493","OBJECT_NAME":"STARLINK-3911","SITE":"AFWTR","LAUNCH_DATE":"2022-05-13","ARG_OF_PERICENTER":"41.9302","REF_FRAME":"TEME","CLASSIFICATION_TYPE":"U","MEAN_MOTION_DDOT":"0.0000000000000","MEAN_MOTION":"15.59046329"},{"PERIAPSIS":"538.596","EPHEMERIS_TYPE":"0","ECCENTRICITY":"0.00017280","OBJECT_ID":"2022-051AK","MEAN_ANOMALY":"289.7411","RCS_SIZE":"LARGE","OBJECT_TYPE":"PAYLOAD","LAUNCH_DATE":"2022-05-13","COUNTRY_CODE":"US","SITE":"AFWTR","OBJECT_NAME":"STARLINK-3938","APOAPSIS":"540.987","MEAN_MOTION_DDOT":"0.0000000000000","CLASSIFICATION_TYPE":"U","MEAN_MOTION":"15.08824951","ARG_OF_PERICENTER":"48.9079","REF_FRAME":"TEME","TIME_SYSTEM":"UTC","TLE_LINE1":"1 52566U 22051AK  22186.58334491  .00033845  00000-0  21353-2 0  9999","GP_ID":"207480295","DECAY_DATE":null,"TLE_LINE2":"2 52566  53.2177  43.5424 0001728  48.9079 289.7411 15.08824951  1307","PERIOD":"95.439","ELEMENT_SET_NO":"999","REV_AT_EPOCH":"130","INCLINATION":"53.2177","NORAD_CAT_ID":"52566","FILE":"3508171","MEAN_ELEMENT_THEORY":"SGP4","RA_OF_ASC_NODE":"43.5424","CENTER_NAME":"EARTH","MEAN_MOTION_DOT":"0.00033845","BSTAR":"0.00213530000000","EPOCH":"2022-07-05T14:00:01.000224","SEMIMAJOR_AXIS":"6917.926"},{"RA_OF_ASC_NODE":"32.7438","MEAN_ELEMENT_THEORY":"SGP4","CENTER_NAME":"EARTH","FILE":"3508171","NORAD_CAT_ID":"52567","SEMIMAJOR_AXIS":"6768.513","MEAN_MOTION_DOT":"-0.01061353","BSTAR":"-0.01468400000000","EPOCH":"2022-07-05T14:00:01.000224","GP_ID":"207479696","TIME_SYSTEM":"UTC","TLE_LINE1":"1 52567U 22051AL  22186.58334491 -.01061353  00000-0 -14684-1 0  9996","INCLINATION":"53.2174","ELEMENT_SET_NO":"999","REV_AT_EPOCH":"130","DECAY_DATE":null,"TLE_LINE2":"2 52567  53.2174  32.7438 0001303  63.3095 188.3288 15.59060028  1307","PERIOD":"92.363","SITE":"AFWTR","APOAPSIS":"391.260","OBJECT_NAME":"STARLINK-3929","COUNTRY_CODE":"US","LAUNCH_DATE":"2022-05-13","REF_FRAME":"TEME","ARG_OF_PERICENTER":"63.3095","MEAN_MOTION":"15.59060028","MEAN_MOTION_DDOT":"0.0000000000000","CLASSIFICATION_TYPE":"U","PERIAPSIS":"389.496","EPHEMERIS_TYPE":"0","OBJECT_TYPE":"PAYLOAD","RCS_SIZE":"LARGE","MEAN_ANOMALY":"188.3288","OBJECT_ID":"2022-051AL","ECCENTRICITY":"0.00013030"},{"PERIAPSIS":"389.313","EPHEMERIS_TYPE":"0","MEAN_ANOMALY":"210.2176","OBJECT_ID":"2022-051AM","ECCENTRICITY":"0.00015340","OBJECT_TYPE":"PAYLOAD","RCS_SIZE":"LARGE","LAUNCH_DATE":"2022-05-13","SITE":"AFWTR","OBJECT_NAME":"STARLINK-3930","APOAPSIS":"391.390","COUNTRY_CODE":"US","MEAN_MOTION":"15.59069199","MEAN_MOTION_DDOT":"0.0000000000000","CLASSIFICATION_TYPE":"U","ARG_OF_PERICENTER":"44.5872","REF_FRAME":"TEME","TIME_SYSTEM":"UTC","TLE_LINE1":"1 52568U 22051AM  22186.58334491 -.01061563  00000-0 -14681-1 0  9997","GP_ID":"207480139","TLE_LINE2":"2 52568  53.2174  32.7649 0001534  44.5872 210.2176 15.59069199  1301","DECAY_DATE":null,"PERIOD":"92.363","INCLINATION":"53.2174","ELEMENT_SET_NO":"999","REV_AT_EPOCH":"130","FILE":"3508171","NORAD_CAT_ID":"52568","RA_OF_ASC_NODE":"32.7649","CENTER_NAME":"EARTH","MEAN_ELEMENT_THEORY":"SGP4","SEMIMAJOR_AXIS":"6768.487","MEAN_MOTION_DOT":"-0.01061563","BSTAR":"-0.01468100000000","EPOCH":"2022-07-05T14:00:01.000224"},{"INCLINATION":"53.2174","REV_AT_EPOCH":"130","ELEMENT_SET_NO":"999","PERIOD":"92.363","TLE_LINE2":"2 52569  53.2174  32.7515 0001266  68.4673 183.9164 15.59066925  1307","DECAY_DATE":null,"GP_ID":"207479595","TLE_LINE1":"1 52569U 22051AN  22186.58334491 -.01061334  00000-0 -14680-1 0  9993","TIME_SYSTEM":"UTC","SEMIMAJOR_AXIS":"6768.493","BSTAR":"-0.01468000000000","EPOCH":"2022-07-05T14:00:01.000224","MEAN_MOTION_DOT":"-0.01061334","RA_OF_ASC_NODE":"32.7515","MEAN_ELEMENT_THEORY":"SGP4","CENTER_NAME":"EARTH","FILE":"3508171","NORAD_CAT_ID":"52569","OBJECT_TYPE":"PAYLOAD","RCS_SIZE":"LARGE","MEAN_ANOMALY":"183.9164","OBJECT_ID":"2022-051AN","ECCENTRICITY":"0.00012660","EPHEMERIS_TYPE":"0","PERIAPSIS":"389.501","ARG_OF_PERICENTER":"68.4673","REF_FRAME":"TEME","MEAN_MOTION":"15.59066925","CLASSIFICATION_TYPE":"U","MEAN_MOTION_DDOT":"0.0000000000000","OBJECT_NAME":"STARLINK-3927","APOAPSIS":"391.215","SITE":"AFWTR","COUNTRY_CODE":"US","LAUNCH_DATE":"2022-05-13"},{"LAUNCH_DATE":"2022-05-13","COUNTRY_CODE":"US","SITE":"AFWTR","OBJECT_NAME":"STARLINK-3924","APOAPSIS":"391.435","MEAN_MOTION_DDOT":"0.0000000000000","CLASSIFICATION_TYPE":"U","MEAN_MOTION":"15.59070311","REF_FRAME":"TEME","ARG_OF_PERICENTER":"40.9030","PERIAPSIS":"389.262","EPHEMERIS_TYPE":"0","OBJECT_ID":"2022-051AP","ECCENTRICITY":"0.00016050","MEAN_ANOMALY":"215.1124","RCS_SIZE":"LARGE","OBJECT_TYPE":"PAYLOAD","NORAD_CAT_ID":"52570","FILE":"3508171","CENTER_NAME":"EARTH","RA_OF_ASC_NODE":"32.7716","MEAN_ELEMENT_THEORY":"SGP4","MEAN_MOTION_DOT":"-0.01061692","EPOCH":"2022-07-05T14:00:01.000224","BSTAR":"-0.01468200000000","SEMIMAJOR_AXIS":"6768.483","TIME_SYSTEM":"UTC","TLE_LINE1":"1 52570U 22051AP  22186.58334491 -.01061692  00000-0 -14682-1 0  9994","GP_ID":"207480240","TLE_LINE2":"2 52570  53.2174  32.7716 0001605  40.9030 215.1124 15.59070311  1309","DECAY_DATE":null,"PERIOD":"92.363","ELEMENT_SET_NO":"999","REV_AT_EPOCH":"130","INCLINATION":"53.2174"},{"TLE_LINE1":"1 52574U 22051AQ  22186.58334491 -.01061747  00000-0 -14687-1 0  9994","TIME_SYSTEM":"UTC","GP_ID":"207480296","TLE_LINE2":"2 52574  53.2174  32.7572 0001674  38.0792 215.9802 15.59062324  1308","DECAY_DATE":null,"PERIOD":"92.363","INCLINATION":"53.2174","ELEMENT_SET_NO":"999","REV_AT_EPOCH":"130","FILE":"3508171","NORAD_CAT_ID":"52574","RA_OF_ASC_NODE":"32.7572","MEAN_ELEMENT_THEORY":"SGP4","CENTER_NAME":"EARTH","SEMIMAJOR_AXIS":"6768.507","MEAN_MOTION_DOT":"-0.01061747","BSTAR":"-0.01468700000000","EPOCH":"2022-07-05T14:00:01.000224","PERIAPSIS":"389.239","EPHEMERIS_TYPE":"0","MEAN_ANOMALY":"215.9802","OBJECT_ID":"2022-051AQ","ECCENTRICITY":"0.00016740","OBJECT_TYPE":"PAYLOAD","RCS_SIZE":"LARGE","LAUNCH_DATE":"2022-05-13","SITE":"AFWTR","OBJECT_NAME":"STARLINK-3901","APOAPSIS":"391.505","COUNTRY_CODE":"US","MEAN_MOTION":"15.59062324","MEAN_MOTION_DDOT":"0.0000000000000","CLASSIFICATION_TYPE":"U","REF_FRAME":"TEME","ARG_OF_PERICENTER":"38.0792"}];
